STARLINK-2068           
1 47722U 21017A   26068.60620311  .00018256  00000+0  62681-3 0  9991
2 47722  53.1619 191.4060 0001151  86.6578 273.4554 15.30209265278064
LYNK TOWER 5            
1 59121U 24043Z   26068.92489786  .00009048  00000+0  31902-3 0  9994
2 59121  97.5458 204.7305 0010406 234.6422 125.3846 15.29454506111860
